25117,ORBCOMM FM05,1997,99.89,45.0,-,45.02,Inactive,1,LEO,Eastern Range Airspace,ORBCOMM,Commercial,Communications,Pegasus,1 25117U 97084F   23287.66926654  .00003924  00000+0  12390-2 0  9994,2 25117  45.0161  53.1425 0001117  39.8064 320.2867 14.41546929353188,14.41546929,0.0001117,LEO
25119,ORBCOMM FM07,1997,99.9,45.0,-,45.01,Inactive,1,LEO,Eastern Range Airspace,ORBCOMM,Commercial,Communications,Pegasus,1 25119U 97084H   23287.46924311  .00004130  00000+0  13048-2 0  9993,2 25119  45.0147  54.6927 0001694   9.5532 350.5350 14.41435833353129,14.41435833,0.0001694,LEO
25158,ORBCOMM FM03,1998,100.6,-1.0,-,107.98,Inactive,0,LEO,USA,ORBCOMM,Unknown,Unknown,Taurus,1 25158U 98007B   23287.33429738  .00002159  00000+0  85113-3 0  9993,2 25158 107.9805 321.7328 0049771 237.3897 122.2431 14.31352500336401,14.313525,0.0049771,LEO
25413,ORBCOMM FM17,1998,100.53,-1.0,-,44.99,Inactive,0,LEO,Eastern Range Airspace,ORBCOMM,Unknown,Unknown,Pegasus,1 25413U 98046A   23287.23731685  .00002503  00000+0  96798-3 0  9990,2 25413  44.9936 259.0964 0002847 341.9457  18.1287 14.32414449315351,14.32414449,0.0002847,LEO
25414,ORBCOMM FM18,1998,100.35,45.0,-,44.99,Inactive,1,LEO,Eastern Range Airspace,ORBCOMM,Commercial,Communications,Pegasus,1 25414U 98046B   23287.75553313  .00002796  00000+0  10232-2 0  9990,2 25414  44.9932 187.9835 0004045  70.8000 289.3285 14.34931384316498,14.34931384,0.0004045,LEO
25118,ORBCOMM FM06,1997,99.9,45.0,+,45.02,Active,1,LEO,Eastern Range Airspace,ORBCOMM,Commercial,Communications,Pegasus,1 25118U 97084G   23287.79468840  .00003949  00000+0  12482-2 0  9996,2 25118  45.0157  52.7030 0000607  99.9985  55.2652 14.41491093353170,14.41491093,6.07e-05,LEO
